NORAD_CAT_ID,OBJECT_NAME,OBJECT_TYPE,EPOCH,MEAN_MOTION,ECCENTRICITY,INCLINATION,RA_OF_ASC_NODE,ARG_OF_PERICENTER,MEAN_ANOMALY,BSTAR,MEAN_MOTION_DOT,MEAN_MOTION_DDOT,TLE_LINE0,TLE_LINE1,TLE_LINE2,SEMIMAJOR_AXIS,PERIOD,APOGEE,PERIGEE,DECAYED
55758.0,STARLINK-5072,PAYLOAD,2024-07-13 14:00:24,14.98343137,0.0003071,70.0012,327.5129,266.9642,93.1166,0.00011196,1.244e-05,0.0,0 STARLINK-5072,1 55758U 23028T   24195.58361531  .00001244  00000-0  11196-3 0  9990,2 55758  70.0012 327.5129 0003071 266.9642  93.1166 14.98343137 75558,6950.152,96.106,574.152,569.883,0.0
55758.0,STARLINK-5072,PAYLOAD,2024-07-13 18:48:48,14.98347533,0.000305,70.0014,327.0079,266.9588,93.1223,0.0001588,1.803e-05,0.0,0 STARLINK-5072,1 55758U 23028T   24195.78388993  .00001803  00000-0  15880-3 0  9998,2 55758  70.0014 327.0079 0003050 266.9588  93.1223 14.98347533 75586,6950.139,96.106,574.123,569.884,0.0
55758.0,STARLINK-5072,PAYLOAD,2024-07-14 12:26:18,14.98326901,0.0002623,70.0031,325.1588,261.795,98.2911,2.3777e-05,1.91e-06,0.0,0 STARLINK-5072,1 55758U 23028T   24196.51826529  .00000191  00000-0  23777-4 0  9996,2 55758  70.0031 325.1588 0002623 261.7950  98.2911 14.98326901 75698,6950.202,96.107,573.891,570.244,0.0
55758.0,STARLINK-5072,PAYLOAD,2024-07-14 14:02:26,14.98323582,0.0002915,70.0032,324.993,255.5015,104.5821,7.7133e-05,8.27e-06,0.0,0 STARLINK-5072,1 55758U 23028T   24196.58502591  .00000827  00000-0  77133-4 0  9994,2 55758  70.0032 324.9930 0002915 255.5015 104.5821 14.98323582 75709,6950.213,96.107,574.104,570.052,0.0
55758.0,STARLINK-5072,PAYLOAD,2024-07-14 18:50:50,14.98326171,0.0002725,70.0028,324.4878,254.1703,105.9156,-8.2827e-06,-1.92e-06,0.0,0 STARLINK-5072,1 55758U 23028T   24196.78530650 -.00000192  00000-0 -82827-5 0  9997,2 55758  70.0028 324.4878 0002725 254.1703 105.9156 14.98326171 75734,6950.205,96.107,573.964,570.176,0.0
55758.0,STARLINK-5072,PAYLOAD,2024-07-15 12:28:18,14.98332015,0.0002865,70.0018,322.6331,266.777,93.3061,-6.7575e-05,-8.99e-06,0.0,0 STARLINK-5072,1 55758U 23028T   24197.51966399 -.00000899  00000-0 -67575-4 0  9998,2 55758  70.0018 322.6331 0002865 266.7770  93.3061 14.98332015 75846,6950.187,96.107,574.043,570.06,0.0
55758.0,STARLINK-5072,PAYLOAD,2024-07-15 14:04:27,14.98331443,0.0002819,70.0017,322.4648,262.7709,97.313,-6.2419e-05,-8.38e-06,0.0,0 STARLINK-5072,1 55758U 23028T   24197.58642407 -.00000838  00000-0 -62419-4 0  9991,2 55758  70.0017 322.4648 0002819 262.7709  97.3130 14.98331443 75857,6950.188,96.107,574.013,570.094,0.0
55758.0,STARLINK-5072,PAYLOAD,2024-07-15 18:52:50,14.98335461,0.0002859,70.0018,321.9599,268.2725,91.8106,-2.1683e-05,-3.52e-06,0.0,0 STARLINK-5072,1 55758U 23028T   24197.78670044 -.00000352  00000-0 -21683-4 0  9990,2 55758  70.0018 321.9599 0002859 268.2725  91.8106 14.98335461 75889,6950.176,96.107,574.028,570.054,0.0
55758.0,STARLINK-5072,PAYLOAD,2024-07-16 12:30:19,14.98347894,0.0002913,70.0017,320.1085,269.2692,90.8134,-0.00022131,-2.734e-05,0.0,0 STARLINK-5072,1 55758U 23028T   24198.52105824 -.00002734  00000-0 -22131-3 0  9996,2 55758  70.0017 320.1085 0002913 269.2692  90.8134 14.98347894 75999,6950.138,96.106,574.027,569.978,0.0
55758.0,STARLINK-5072,PAYLOAD,2024-07-16 14:06:27,14.98328243,0.0002863,70.0017,319.9402,266.7726,93.3105,0.00013227,1.486e-05,0.0,0 STARLINK-5072,1 55758U 23028T   24198.58782117  .00001486  00000-0  13227-3 0  9995,2 55758  70.0017 319.9402 0002863 266.7726  93.3105 14.98328243 76008,6950.198,96.107,574.053,570.073,0.0
55758.0,STARLINK-5072,PAYLOAD,2024-07-16 17:18:43,14.98333701,0.0002822,70.0017,319.6036,266.695,93.3887,0.00016033,1.821e-05,0.0,0 STARLINK-5072,1 55758U 23028T   24198.72133706  .00001821  00000-0  16033-3 0  9996,2 55758  70.0017 319.6036 0002822 266.6950  93.3887 14.98333701 76025,6950.181,96.107,574.008,570.085,0.0
55758.0,STARLINK-5072,PAYLOAD,2024-07-17 12:32:21,14.98316613,0.0002833,70.0021,317.5836,262.0464,98.0373,5.4551e-06,-2.8e-07,0.0,0 STARLINK-5072,1 55758U 23028T   24199.52247463 -.00000028  00000-0  54551-5 0  9999,2 55758  70.0021 317.5836 0002833 262.0464  98.0373 14.98316613 76145,6950.234,96.108,574.068,570.13,0.0
55758.0,STARLINK-5072,PAYLOAD,2024-07-17 14:08:29,14.98322012,0.0003097,70.0007,317.4141,270.5764,89.5041,-3.1189e-05,-4.65e-06,0.0,0 STARLINK-5072,1 55758U 23028T   24199.58923265 -.00000465  00000-0 -31189-4 0  9993,2 55758  70.0007 317.4141 0003097 270.5764  89.5041 14.98322012 76155,6950.218,96.108,574.235,569.93,0.0
55758.0,STARLINK-5072,PAYLOAD,2024-07-17 17:20:45,14.98323709,0.0002779,70.0015,317.0786,267.1424,92.9417,3.9737e-06,-4.6e-07,0.0,0 STARLINK-5072,1 55758U 23028T   24199.72275169 -.00000046  00000-0  39737-5 0  9994,2 55758  70.0015 317.0786 0002779 267.1424  92.9417 14.98323709 76177,6950.212,96.107,574.009,570.146,0.0
55758.0,STARLINK-5072,PAYLOAD,2024-07-18 14:10:30,14.98330468,0.0002778,70.0013,314.8891,264.1716,95.9126,2.9985e-05,2.65e-06,0.0,0 STARLINK-5072,1 55758U 23028T   24200.59062953  .00000265  00000-0  29985-4 0  9992,2 55758  70.0013 314.8891 0002778 264.1716  95.9126 14.98330468 76302,6950.191,96.107,573.987,570.126,0.0
55758.0,STARLINK-5072,PAYLOAD,2024-07-18 17:22:46,14.9833675,0.0002816,70.0013,314.5527,266.3588,93.7249,7.5595e-05,8.09e-06,0.0,0 STARLINK-5072,1 55758U 23028T   24200.72414438  .00000809  00000-0  75595-4 0  9998,2 55758  70.0013 314.5527 0002816 266.3588  93.7249 14.98336750 76323,6950.172,96.107,573.994,570.08,0.0
55758.0,STARLINK-5072,PAYLOAD,2024-07-19 14:12:30,14.98332293,0.000267,70.0016,312.3642,266.4537,93.6316,0.00022938,2.645e-05,0.0,0 STARLINK-5072,1 55758U 23028T   24201.59202405  .00002645  00000-0  22938-3 0  9995,2 55758  70.0016 312.3642 0002670 266.4537  93.6316 14.98332293 76459,6950.186,96.107,573.906,570.195,0.0
55758.0,STARLINK-5072,PAYLOAD,2024-07-19 17:24:46,14.98336521,0.0002639,70.0019,312.0282,265.4865,94.5993,0.00031139,3.625e-05,0.0,0 STARLINK-5072,1 55758U 23028T   24201.72554020  .00003625  00000-0  31139-3 0  9995,2 55758  70.0019 312.0282 0002639 265.4865  94.5993 14.98336521 76478,6950.173,96.107,573.872,570.204,0.0
55758.0,STARLINK-5072,PAYLOAD,2024-07-20 11:02:15,14.98335258,0.0002506,70.0025,310.1798,251.4545,108.6342,9.0883e-05,9.92e-06,0.0,0 STARLINK-5072,1 55758U 23028T   24202.45990349  .00000992  00000-0  90883-4 0  9990,2 55758  70.0025 310.1798 0002506 251.4545 108.6342 14.98335258 76582,6950.177,96.107,573.783,570.3,0.0
55758.0,STARLINK-5072,PAYLOAD,2024-07-20 14:14:31,14.98338161,0.0002498,70.0025,309.8441,251.6349,108.4538,0.00011912,1.329e-05,0.0,0 STARLINK-5072,1 55758U 23028T   24202.59342105  .00001329  00000-0  11912-3 0  9996,2 55758  70.0025 309.8441 0002498 251.6349 108.4538 14.98338161 76600,6950.168,96.106,573.769,570.297,0.0
55758.0,STARLINK-5072,PAYLOAD,2024-07-20 17:26:47,14.98341916,0.0002473,70.0024,309.5073,252.6753,107.4135,4.9445e-05,4.97e-06,0.0,0 STARLINK-5072,1 55758U 23028T   24202.72693905  .00000497  00000-0  49445-4 0  9996,2 55758  70.0024 309.5073 0002473 252.6753 107.4135 14.98341916 76626,6950.156,96.106,573.74,570.302,0.0
55758.0,STARLINK-5072,PAYLOAD,2024-07-21 11:04:17,14.9832722,0.0002668,70.0021,307.6538,258.0778,102.0082,-9.6931e-05,-1.249e-05,0.0,0 STARLINK-5072,1 55758U 23028T   24203.46131022 -.00001249  00000-0 -96931-4 0  9995,2 55758  70.0021 307.6538 0002668 258.0778 102.0082 14.98327220 76737,6950.201,96.107,573.921,570.212,0.0
55758.0,STARLINK-5072,PAYLOAD,2024-07-21 14:16:33,14.98329425,0.0002704,70.0017,307.3169,259.3766,100.7089,-7.9775e-05,-1.045e-05,0.0,0 STARLINK-5072,1 55758U 23028T   24203.59482860 -.00001045  00000-0 -79775-4 0  9999,2 55758  70.0017 307.3169 0002704 259.3766 100.7089 14.98329425 76754,6950.195,96.107,573.939,570.18,0.0
55758.0,STARLINK-5072,PAYLOAD,2024-07-21 15:52:41,14.9832999,0.0002769,70.0016,307.1483,260.3492,99.7355,-5.5509e-05,-7.55e-06,0.0,0 STARLINK-5072,1 55758U 23028T   24203.66158772 -.00000755  00000-0 -55509-4 0  9995,2 55758  70.0016 307.1483 0002769 260.3492  99.7355 14.98329990 76760,6950.193,96.107,573.982,570.133,0.0
55758.0,STARLINK-5072,PAYLOAD,2024-07-22 09:30:09,14.98333651,0.0002749,70.0014,305.2974,262.6266,97.4581,3.3138e-05,3.02e-06,0.0,0 STARLINK-5072,1 55758U 23028T   24204.39594365  .00000302  00000-0  33138-4 0  9998,2 55758  70.0014 305.2974 0002749 262.6266  97.4581 14.98333651 76871,6950.182,96.107,573.957,570.136,0.0
55758.0,STARLINK-5072,PAYLOAD,2024-07-23 12:44:26,14.98329743,0.0003056,70.0001,302.4335,268.3088,91.7721,0.0001629,1.851e-05,0.0,0 STARLINK-5072,1 55758U 23028T   24205.53086460  .00001851  00000-0  16290-3 0  9996,2 55758  70.0001 302.4335 0003056 268.3088  91.7721 14.98329743 77044,6950.194,96.107,574.183,569.935,0.0
55758.0,STARLINK-5072,PAYLOAD,2024-07-24 09:34:09,14.98348866,0.0003205,69.9991,300.2435,265.1444,94.9349,0.00021098,2.426e-05,0.0,0 STARLINK-5072,1 55758U 23028T   24206.39872593  .00002426  00000-0  21098-3 0  9992,2 55758  69.9991 300.2435 0003205 265.1444  94.9349 14.98348866 77175,6950.135,96.106,574.227,569.772,0.0
55758.0,STARLINK-5072,PAYLOAD,2024-07-25 06:23:55,14.98337775,0.0003061,69.9993,298.0541,270.0398,90.041,0.00014035,1.582e-05,0.0,0 STARLINK-5072,1 55758U 23028T   24207.26660901  .00001582  00000-0  14035-3 0  9992,2 55758  69.9993 298.0541 0003061 270.0398  90.0410 14.98337775 77300,6950.169,96.107,574.161,569.906,0.0
55758.0,STARLINK-5072,PAYLOAD,2024-07-25 09:36:12,14.98315895,0.0003654,70.0005,297.7239,280.0298,80.0449,-0.00019402,-2.407e-05,0.0,0 STARLINK-5072,1 55758U 23028T   24207.40014892 -.00002407  00000-0 -19402-3 0  9992,2 55758  70.0005 297.7239 0003654 280.0298  80.0449 14.98315895 77327,6950.237,96.108,574.641,569.562,0.0
55758.0,STARLINK-5072,PAYLOAD,2024-07-25 16:00:45,14.98316704,0.0003405,70.0004,297.05,276.4383,83.6388,-0.00017413,-2.169e-05,0.0,0 STARLINK-5072,1 55758U 23028T   24207.66718952 -.00002169  00000-0 -17413-3 0  9993,2 55758  70.0004 297.0500 0003405 276.4383  83.6388 14.98316704 77363,6950.234,96.108,574.466,569.732,0.0
